{"type": "FeatureCollection", "features": [ {"type": "Feature", "properties": {"norad_id": 67121, "name": "STARLINK-36124", "group": "last-30-days", "lat": 38.58860231630654, "lon": 1.5318858831416506, "alt_km": 313.28657862022646, "timestamp": "2025-12-25T03:55:54.957363+00:00", "meta": {"OBJECT_NAME": "STARLINK-36124", "OBJECT_ID": "2025-299V", "EPOCH": "2025-12-24T20:00:01.000224", "MEAN_MOTION": 15.85601722, "ECCENTRICITY": 0.0001626, "INCLINATION": 42.9971, "RA_OF_ASC_NODE": 242.4849, "ARG_OF_PERICENTER": 267.2081, "MEAN_ANOMALY": 118.5691, "EPHEMERIS_TYPE": 0, "CLASSIFICATION_TYPE": "U", "NORAD_CAT_ID": 67121, "ELEMENT_SET_NO": 999, "REV_AT_EPOCH": 275, "BSTAR": -0.0082953, "MEAN_MOTION_DOT": -0.01785249, "MEAN_MOTION_DDOT": 0}, "tle": {"line1": "1 67121U 25299V   25358.83334491 -.01785249  00000+0 -82953-2 0  9998", "line2": "2 67121  42.9971 242.4849 0001626 267.2081 118.5691 15.85601722  2757"}}, "geometry": {"type": "Point", "coordinates": [1.5318858831416506, 38.58860231630654]}}, {"type": "Feature", "properties": {"norad_id": 67122, "name": "STARLINK-36188", "group": "last-30-days", "lat": 38.04793876978082, "lon": 3.309340110386907, "alt_km": 313.30868366941286, "timestamp": "2025-12-25T03:55:54.957373+00:00", "meta": {"OBJECT_NAME": "STARLINK-36188", "OBJECT_ID": "2025-299W", "EPOCH": "2025-12-24T20:00:01.000224", "MEAN_MOTION": 15.85629983, "ECCENTRICITY": 0.0001612, "INCLINATION": 42.9973, "RA_OF_ASC_NODE": 242.4814, "ARG_OF_PERICENTER": 267.3226, "MEAN_ANOMALY": 119.9257, "EPHEMERIS_TYPE": 0, "CLASSIFICATION_TYPE": "U", "NORAD_CAT_ID": 67122, "ELEMENT_SET_NO": 999, "REV_AT_EPOCH": 275, "BSTAR": -0.0083696, "MEAN_MOTION_DOT": -0.01801002, "MEAN_MOTION_DDOT": 0}, "tle": {"line1": "1 67122U 25299W   25358.83334491 -.01801002  00000+0 -83696-2 0  9990", "line2": "2 67122  42.9973 242.4814 0001612 267.3226 119.9257 15.85629983  2751"}}, "geometry": {"type": "Point", "coordinates": [3.309340110386907, 38.04793876978082]}}, {"type": "Feature", "properties": {"norad_id": 67123, "name": "STARLINK-36151", "group": "last-30-days", "lat": 39.190299240021844, "lon": -0.5928114303521724, "alt_km": 313.27744499550954, "timestamp": "2025-12-25T03:55:54.957383+00:00", "meta": {"OBJECT_NAME": "STARLINK-36151", "OBJECT_ID": "2025-299X", "EPOCH": "2025-12-24T20:00:01.000224", "MEAN_MOTION": 15.85606237, "ECCENTRICITY": 0.0001666, "INCLINATION": 42.9975, "RA_OF_ASC_NODE": 242.4897, "ARG_OF_PERICENTER": 270.9702, "MEAN_ANOMALY": 113.043, "EPHEMERIS_TYPE": 0, "CLASSIFICATION_TYPE": "U", "NORAD_CAT_ID": 67123, "ELEMENT_SET_NO": 999, "REV_AT_EPOCH": 275, "BSTAR": -0.0083394, "MEAN_MOTION_DOT": -0.01793724, "MEAN_MOTION_DDOT": 0}, "tle": {"line1": "1 67123U 25299X   25358.83334491 -.01793724  00000+0 -83394-2 0  9997", "line2": "2 67123  42.9975 242.4897 0001666 270.9702 113.0430 15.85606237  2758"}}, "geometry": {"type": "Point", "coordinates": [-0.5928114303521724, 39.190299240021844]}}, {"type": "Feature", "properties": {"norad_id": 67124, "name": "STARLINK-36195", "group": "last-30-days", "lat": 37.41812607415032, "lon": 5.247698195950975, "alt_km": 313.4153727003113, "timestamp": "2025-12-25T03:55:54.957395+00:00", "meta": {"OBJECT_NAME": "STARLINK-36195", "OBJECT_ID": "2025-299Y", "EPOCH": "2025-12-24T20:00:01.000224", "MEAN_MOTION": 15.85636577, "ECCENTRICITY": 0.0001722, "INCLINATION": 42.9977, "RA_OF_ASC_NODE": 242.4775, "ARG_OF_PERICENTER": 266.1822, "MEAN_ANOMALY": 122.7158, "EPHEMERIS_TYPE": 0, "CLASSIFICATION_TYPE": "U", "NORAD_CAT_ID": 67124, "ELEMENT_SET_NO": 999, "REV_AT_EPOCH": 275, "BSTAR": -0.0083446, "MEAN_MOTION_DOT": -0.01797026, "MEAN_MOTION_DDOT": 0}, "tle": {"line1": "1 67124U 25299Y   25358.83334491 -.01797026  00000+0 -83446-2 0  9995", "line2": "2 67124  42.9977 242.4775 0001722 266.1822 122.7158 15.85636577  2753"}}, "geometry": {"type": "Point", "coordinates": [5.247698195950975, 37.41812607415032]}}, {"type": "Feature", "properties": {"norad_id": 67125, "name": "STARLINK-36219", "group": "last-30-days", "lat": 36.79219659197568, "lon": 7.051405323271601, "alt_km": 313.49320006515427, "timestamp": "2025-12-25T03:55:54.957407+00:00", "meta": {"OBJECT_NAME": "STARLINK-36219", "OBJECT_ID": "2025-299Z", "EPOCH": "2025-12-24T20:00:01.000224", "MEAN_MOTION": 15.85643719, "ECCENTRICITY": 0.0001688, "INCLINATION": 42.9972, "RA_OF_ASC_NODE": 242.473, "ARG_OF_PERICENTER": 269.2592, "MEAN_ANOMALY": 121.1989, "EPHEMERIS_TYPE": 0, "CLASSIFICATION_TYPE": "U", "NORAD_CAT_ID": 67125, "ELEMENT_SET_NO": 999, "REV_AT_EPOCH": 275, "BSTAR": -0.0083363, "MEAN_MOTION_DOT": -0.01796015, "MEAN_MOTION_DDOT": 0}, "tle": {"line1": "1 67125U 25299Z   25358.83334491 -.01796015  00000+0 -83363-2 0  9991", "line2": "2 67125  42.9972 242.4730 0001688 269.2592 121.1989 15.85643719  2750"}}, "geometry": {"type": "Point", "coordinates": [7.051405323271601, 36.79219659197568]}}, {"type": "Feature", "properties": {"norad_id": 67126, "name": "STARLINK-36223", "group": "last-30-days", "lat": 36.02000753706132, "lon": 9.141659403869497, "alt_km": 313.47554405818573, "timestamp": "2025-12-25T03:55:54.957417+00:00", "meta": {"OBJECT_NAME": "STARLINK-36223", "OBJECT_ID": "2025-299AA", "EPOCH": "2025-12-24T20:00:01.000224", "MEAN_MOTION": 15.85652425, "ECCENTRICITY": 0.0001627, "INCLINATION": 42.9974, "RA_OF_ASC_NODE": 242.4685, "ARG_OF_PERICENTER": 264.1981, "MEAN_ANOMALY": 128.1061, "EPHEMERIS_TYPE": 0, "CLASSIFICATION_TYPE": "U", "NORAD_CAT_ID": 67126, "ELEMENT_SET_NO": 999, "REV_AT_EPOCH": 275, "BSTAR": -0.0083574, "MEAN_MOTION_DOT": -0.01800472, "MEAN_MOTION_DDOT": 0}, "tle": {"line1": "1 67126U 25299AA  25358.83334491 -.01800472  00000+0 -83574-2 0  9999", "line2": "2 67126  42.9974 242.4685 0001627 264.1981 128.1061 15.85652425  2753"}}, "geometry": {"type": "Point", "coordinates": [9.141659403869497, 36.02000753706132]}}, {"type": "Feature", "properties": {"norad_id": 67127, "name": "STARLINK-36164", "group": "last-30-days", "lat": 35.28312484751116, "lon": 11.01458176513373, "alt_km": 313.5645635584433, "timestamp": "2025-12-25T03:55:54.957427+00:00", "meta": {"OBJECT_NAME": "STARLINK-36164", "OBJECT_ID": "2025-299AB", "EPOCH": "2025-12-24T20:00:01.000224", "MEAN_MOTION": 15.85646797, "ECCENTRICITY": 0.0001633, "INCLINATION": 42.9973, "RA_OF_ASC_NODE": 242.4643, "ARG_OF_PERICENTER": 264.9909, "MEAN_ANOMALY": 129.0041, "EPHEMERIS_TYPE": 0, "CLASSIFICATION_TYPE": "U", "NORAD_CAT_ID": 67127, "ELEMENT_SET_NO": 999, "REV_AT_EPOCH": 275, "BSTAR": -0.0082749, "MEAN_MOTION_DOT": -0.01784876, "MEAN_MOTION_DDOT": 0}, "tle": {"line1": "1 67127U 25299AB  25358.83334491 -.01784876  00000+0 -82749-2 0  9992", "line2": "2 67127  42.9973 242.4643 0001633 264.9909 129.0041 15.85646797  2755"}}, "geometry": {"type": "Point", "coordinates": [11.01458176513373, 35.28312484751116]}}, {"type": "Feature", "properties": {"norad_id": 67128, "name": "STARLINK-35685", "group": "last-30-days", "lat": 33.094845630595756, "lon": 16.028800821344223, "alt_km": 313.91286014195157, "timestamp": "2025-12-25T03:55:54.957437+00:00", "meta": {"OBJECT_NAME": "STARLINK-35685", "OBJECT_ID": "2025-299AC", "EPOCH": "2025-12-24T20:00:01.000224", "MEAN_MOTION": 15.8562569, "ECCENTRICITY": 0.0001669, "INCLINATION": 42.9972, "RA_OF_ASC_NODE": 242.452, "ARG_OF_PERICENTER": 263.2185, "MEAN_ANOMALY": 135.4989, "EPHEMERIS_TYPE": 0, "CLASSIFICATION_TYPE": "U", "NORAD_CAT_ID": 67128, "ELEMENT_SET_NO": 999, "REV_AT_EPOCH": 275, "BSTAR": -0.0083152, "MEAN_MOTION_DOT": -0.01790748, "MEAN_MOTION_DDOT": 0}, "tle": {"line1": "1 67128U 25299AC  25358.83334491 -.01790748  00000+0 -83152-2 0  9997", "line2": "2 67128  42.9972 242.4520 0001669 263.2185 135.4989 15.85625690  2757"}}, "geometry": {"type": "Point", "coordinates": [16.028800821344223, 33.094845630595756]}}, {"type": "Feature", "properties": {"norad_id": 67129, "name": "STARLINK-36214", "group": "last-30-days", "lat": 34.393876911713264, "lon": 13.141318043100032, "alt_km": 313.7678671479798, "timestamp": "2025-12-25T03:55:54.957447+00:00", "meta": {"OBJECT_NAME": "STARLINK-36214", "OBJECT_ID": "2025-299AD", "EPOCH": "2025-12-24T20:00:01.000224", "MEAN_MOTION": 15.85659814, "ECCENTRICITY": 0.0001601, "INCLINATION": 42.9973, "RA_OF_ASC_NODE": 242.4591, "ARG_OF_PERICENTER": 271.6725, "MEAN_ANOMALY": 124.275, "EPHEMERIS_TYPE": 0, "CLASSIFICATION_TYPE": "U", "NORAD_CAT_ID": 67129, "ELEMENT_SET_NO": 999, "REV_AT_EPOCH": 275, "BSTAR": -0.0083722, "MEAN_MOTION_DOT": -0.01843727, "MEAN_MOTION_DDOT": 0}, "tle": {"line1": "1 67129U 25299AD  25358.83334491 -.01843727  00000+0 -83722-2 0  9997", "line2": "2 67129  42.9973 242.4591 0001601 271.6725 124.2750 15.85659814  2753"}}, "geometry": {"type": "Point", "coordinates": [13.141318043100032, 34.393876911713264]}}, {"type": "Feature", "properties": {"norad_id": 67130, "name": "STARLINK-36194", "group": "last-30-days", "lat": 30.673262970673534, "lon": 20.86925186448329, "alt_km": 314.716401779855, "timestamp": "2025-12-25T03:55:54.957457+00:00", "meta": {"OBJECT_NAME": "STARLINK-36194", "OBJECT_ID": "2025-299AE", "EPOCH": "2025-12-24T20:00:01.000224", "MEAN_MOTION": 15.85529405, "ECCENTRICITY": 0.0001722, "INCLINATION": 42.9972, "RA_OF_ASC_NODE": 242.4414, "ARG_OF_PERICENTER": 274.5061, "MEAN_ANOMALY": 129.0944, "EPHEMERIS_TYPE": 0, "CLASSIFICATION_TYPE": "U", "NORAD_CAT_ID": 67130, "ELEMENT_SET_NO": 999, "REV_AT_EPOCH": 275, "BSTAR": -0.0083401, "MEAN_MOTION_DOT": -0.01788117, "MEAN_MOTION_DDOT": 0}, "tle": {"line1": "1 67130U 25299AE  25358.83334491 -.01788117  00000+0 -83401-2 0  9994", "line2": "2 67130  42.9972 242.4414 0001722 274.5061 129.0944 15.85529405  2757"}}, "geometry": {"type": "Point", "coordinates": [20.86925186448329, 30.673262970673534]}}]}